NORAD_CAT_ID,OBJECT_NAME,OBJECT_TYPE,EPOCH,MEAN_MOTION,ECCENTRICITY,INCLINATION,RA_OF_ASC_NODE,ARG_OF_PERICENTER,MEAN_ANOMALY,BSTAR,MEAN_MOTION_DOT,MEAN_MOTION_DDOT,TLE_LINE0,TLE_LINE1,TLE_LINE2,SEMIMAJOR_AXIS,PERIOD,APOGEE,PERIGEE,DECAYED
52695.0,STARLINK-4041,PAYLOAD,2022-10-08 11:33:02,15.08837088,0.0001938,53.22,352.5436,38.1706,321.9423,2.9978000000000014e-05,1.89e-06,0.0,0 STARLINK-4041,1 52695U 22053AR  22281.48128152  .00000189  00000-0  29978-4 0  9992,2 52695  53.2200 352.5436 0001938  38.1706 321.9423 15.08837088 22652,6917.889,95.438,541.095,538.414,0.0
52695.0,STARLINK-4041,PAYLOAD,2022-10-09 05:02:17,15.08854038,0.0001927,53.22,349.2731,35.8086,324.3035,0.0010381,0.00016278,0.0,0 STARLINK-4041,1 52695U 22053AR  22282.20992151  .00016278  00000-0  10381-2 0  9993,2 52695  53.2200 349.2731 0001927  35.8086 324.3035 15.08854038 22353,6917.837,95.437,541.036,538.369,0.0
52695.0,STARLINK-4041,PAYLOAD,2022-10-09 11:23:49,15.08845211,0.0001906,53.2205,348.0832,34.2495,325.862,0.00072101,0.00011207,0.0,0 STARLINK-4041,1 52695U 22053AR  22282.47488228  .00011207  00000-0  72101-3 0  9993,2 52695  53.2205 348.0832 0001906  34.2495 325.8620 15.08845211 22800,6917.864000000001,95.437,541.048,538.411,0.0
52695.0,STARLINK-4041,PAYLOAD,2022-10-09 20:56:08,15.08865779,0.0001936,53.2205,346.2990000000001,33.9709,326.1406,0.0010785,0.0001693,0.0,0 STARLINK-4041,1 52695U 22053AR  22282.87231705  .00016930  00000-0  10785-2 0  9990,2 52695  53.2205 346.2990 0001936  33.9709 326.1406 15.08865779 22450,6917.802,95.436,541.006,538.327,0.0
52695.0,STARLINK-4041,PAYLOAD,2022-10-10 11:14:36,15.08849768,0.0001906999999999,53.2196,343.6235,38.2603,321.8524,9.0747e-05,1.157e-05,0.0,0 STARLINK-4041,1 52695U 22053AR  22283.46847495  .00001157  00000-0  90747-4 0  9998,2 52695  53.2196 343.6235 0001907  38.2603 321.8524 15.08849768 22959,6917.851,95.437,541.035,538.396,0.0
52695.0,STARLINK-4041,PAYLOAD,2022-10-10 20:46:54,15.08853151,0.0001898,53.2199,341.8393,36.6956,323.4166,0.00018907,2.723e-05,0.0,0 STARLINK-4041,1 52695U 22053AR  22283.86591114  .00002723  00000-0  18907-3 0  9993,2 52695  53.2199 341.8393 0001898  36.6956 323.4166 15.08853151 23018,6917.84,95.437,541.018,538.3919999999998,0.0
52695.0,STARLINK-4041,PAYLOAD,2022-10-11 11:05:24,15.0881948,0.0002201999999999,53.2203,339.1624,34.2563,325.8571,-0.00048142,-7.938e-05,0.0,0 STARLINK-4041,1 52695U 22053AR  22284.46208404 -.00007938  00000-0 -48142-3 0  9996,2 52695  53.2203 339.1624 0002202  34.2563 325.8571 15.08819480 22695,6917.943,95.439,541.331,538.285,0.0
52695.0,STARLINK-4041,PAYLOAD,2022-10-12 12:31:34,15.08845235,0.0002013,53.2187,334.406,39.3756,320.7383,0.001344,0.0002117,0.0,0 STARLINK-4041,1 52695U 22053AR  22285.52193219  .00021170  00000-0  13440-2 0  9995,2 52695  53.2187 334.4060 0002013  39.3756 320.7383 15.08845235 22858,6917.864000000001,95.437,541.122,538.337,0.0
52695.0,STARLINK-4041,PAYLOAD,2022-10-13 02:50:03,15.0884125,0.0002106,53.2185,331.73,39.4871,320.6274,0.00055919,8.623e-05,0.0,0 STARLINK-4041,1 52695U 22053AR  22286.11809487  .00008623  00000-0  55919-3 0  9998,2 52695  53.2185 331.7300 0002106  39.4871 320.6274 15.08841250 22946,6917.877,95.437,541.198,538.285,0.0
52695.0,STARLINK-4041,PAYLOAD,2022-10-13 10:46:59,15.0883367,0.0001956999999999,53.2193,330.2439,45.68,314.4352,0.00010999,1.462e-05,0.0,0 STARLINK-4041,1 52695U 22053AR  22286.44929542  .00001462  00000-0  10999-3 0  9992,2 52695  53.2193 330.2439 0001957  45.6800 314.4352 15.08833670 23403,6917.9,95.438,541.119,538.411,0.0
52695.0,STARLINK-4041,PAYLOAD,2022-10-13 15:33:08,15.08836379,0.0002028,53.2186,329.3515,41.8678,318.2469,0.000112,1.495e-05,0.0,0 STARLINK-4041,1 52695U 22053AR  22286.64801607  .00001495  00000-0  11200-3 0  9997,2 52695  53.2186 329.3515 0002028  41.8678 318.2469 15.08836379 23028,6917.891,95.438,541.159,538.354,0.0
52695.0,STARLINK-4041,PAYLOAD,2022-10-14 09:02:23,15.08841156,0.0002126999999999,53.2189,326.0801,43.3703,316.7456,0.00021729,3.172e-05,0.0,0 STARLINK-4041,1 52695U 22053AR  22287.37665674  .00003172  00000-0  21729-3 0  9991,2 52695  53.2189 326.0801 0002127  43.3703 316.7456 15.08841156 23544,6917.877,95.437,541.2130000000002,538.27,0.0
52695.0,STARLINK-4041,PAYLOAD,2022-10-14 20:10:04,15.08857222,0.0002246,53.2189,323.9985,41.8846,318.2317,0.00053586,8.254e-05,0.0,0 STARLINK-4041,1 52695U 22053AR  22287.84033213  .00008254  00000-0  53586-3 0  9993,2 52695  53.2189 323.9985 0002246  41.8846 318.2317 15.08857222 23618,6917.828,95.436,541.246,538.139,0.0
52695.0,STARLINK-4041,PAYLOAD,2022-10-15 02:31:37,15.08851324,0.0002081,53.219,322.8107,36.3511,323.7622,0.00037711,5.721e-05,0.0,0 STARLINK-4041,1 52695U 22053AR  22288.10529240  .00005721  00000-0  37711-3 0  9991,2 52695  53.2190 322.8107 0002081  36.3511 323.7622 15.08851324 23245,6917.846,95.437,541.15,538.271,0.0
52695.0,STARLINK-4041,PAYLOAD,2022-10-15 12:03:55,15.08851813,0.0002264,53.219,321.0276,34.8903,325.2237,0.0002316999999999,3.402e-05,0.0,0 STARLINK-4041,1 52695U 22053AR  22288.50272916  .00003402  00000-0  23170-3 0  9998,2 52695  53.2190 321.0276 0002264  34.8903 325.2237 15.08851813 23718,6917.844,95.437,541.275,538.143,0.0
52695.0,STARLINK-4041,PAYLOAD,2022-10-16 02:22:24,15.08837543,0.000215,53.2194,318.3499,36.4928,323.621,-2.1464e-06,-3.22e-06,0.0,0 STARLINK-4041,1 52695U 22053AR  22289.09889314 -.00000322  00000-0 -21464-5 0  9995,2 52695  53.2194 318.3499 0002150  36.4928 323.6210 15.08837543 23398,6917.888000000001,95.438,541.24,538.266,0.0
52695.0,STARLINK-4041,PAYLOAD,2022-10-16 13:30:06,15.08834848,0.0002208,53.2194,316.2683,39.1203,320.9949,-5.4945e-05,-1.163e-05,0.0,0 STARLINK-4041,1 52695U 22053AR  22289.56257501 -.00001163  00000-0 -54945-4 0  9997,2 52695  53.2194 316.2683 0002208  39.1203 320.9949 15.08834848 23877,6917.896,95.438,541.289,538.234,0.0
52695.0,STARLINK-4041,PAYLOAD,2022-10-17 03:48:35,15.08830401,0.0002145,53.2202,313.5925,34.2517,325.8613,-7.6913e-05,-1.512e-05,0.0,0 STARLINK-4041,1 52695U 22053AR  22290.15874283 -.00001512  00000-0 -76913-4 0  9993,2 52695  53.2202 313.5925 0002145  34.2517 325.8613 15.08830401 23558,6917.91,95.438,541.259,538.2909999999998,0.0
52695.0,STARLINK-4041,PAYLOAD,2022-10-17 10:10:08,15.08829896,0.0002086999999999,53.2199,312.4023,38.1197,321.9943,-6.9848e-05,-1.399e-05,0.0,0 STARLINK-4041,1 52695U 22053AR  22290.42370389 -.00001399  00000-0 -69848-4 0  9993,2 52695  53.2199 312.4023 0002087  38.1197 321.9943 15.08829896 24002,6917.911,95.438,541.22,538.3330000000002,0.0
52695.0,STARLINK-4041,PAYLOAD,2022-10-18 00:28:35,15.08835054,0.0002059,53.2198,309.726,36.7972,323.3161,2.7751e-05,1.53e-06,0.0,0 STARLINK-4041,1 52695U 22053AR  22291.01986007  .00000153  00000-0  27751-4 0  9991,2 52695  53.2198 309.7260 0002059  36.7972 323.3161 15.08835054 23681,6917.896,95.438,541.185,538.336,0.0
52695.0,STARLINK-4041,PAYLOAD,2022-10-18 10:00:55,15.08828061,0.0002349,53.2192,307.945,36.1264,323.9886,4.5757e-05,4.4e-06,0.0,0 STARLINK-4041,1 52695U 22053AR  22291.41730645  .00000440  00000-0  45757-4 0  9995,2 52695  53.2192 307.9450 0002349  36.1264 323.9886 15.08828061 24159,6917.917,95.438,541.4069999999998,538.1569999999998,0.0
52695.0,STARLINK-4041,PAYLOAD,2022-10-18 17:57:50,15.08830204,0.0002153,53.2194,306.4551,38.7053,321.4093,6.4601e-05,7.400000000000001e-06,0.0,0 STARLINK-4041,1 52695U 22053AR  22291.74850659  .00000740  00000-0  64601-4 0  9991,2 52695  53.2194 306.4551 0002153  38.7053 321.4093 15.08830204 24205,6917.91,95.438,541.265,538.286,0.0
52695.0,STARLINK-4041,PAYLOAD,2022-10-19 01:54:46,15.08833121,0.0002198,53.2191,304.9678,37.3572,322.7573,0.00016078,2.271e-05,0.0,0 STARLINK-4041,1 52695U 22053AR  22292.07970343  .00002271  00000-0  16078-3 0  9996,2 52695  53.2191 304.9678 0002198  37.3572 322.7573 15.08833121 23842,6917.901,95.438,541.2869999999998,538.246,0.0
52695.0,STARLINK-4041,PAYLOAD,2022-10-19 09:51:42,15.08836111,0.0002261,53.2192,303.4813,37.7151,322.3999,0.00017631,2.519e-05,0.0,0 STARLINK-4041,1 52695U 22053AR  22292.41090299  .00002519  00000-0  17631-3 0  9998,2 52695  53.2192 303.4813 0002261  37.7151 322.3999 15.08836111 24308,6917.892,95.438,541.321,538.193,0.0
52695.0,STARLINK-4041,PAYLOAD,2022-10-20 04:56:21,15.08771125,0.0002657,53.2193,299.9128,50.6042,309.5185,0.0010617,0.00016618,0.0,0 STARLINK-4041,1 52695U 22053AR  22293.20580203  .00016618  00000-0  10617-2 0  9996,2 52695  53.2193 299.9128 0002657  50.6042 309.5185 15.08771125 24014,6918.090999999999,95.442,541.794,538.118,0.0
52695.0,STARLINK-4041,PAYLOAD,2022-10-20 09:42:28,15.08842328,0.000222,53.2195,299.0204,43.6707,316.446,0.00015344,2.155e-05,0.0,0 STARLINK-4041,1 52695U 22053AR  22293.40450212  .00002155  00000-0  15344-3 0  9998,2 52695  53.2195 299.0204 0002220  43.6707 316.4460 15.08842328 24453,6917.873000000001,95.437,541.274,538.203,0.0
52695.0,STARLINK-4041,PAYLOAD,2022-10-20 17:39:24,15.08842981,0.0002296999999999,53.2196,297.5336,41.0453,319.0712,0.00014419,2.007e-05,0.0,0 STARLINK-4041,1 52695U 22053AR  22293.73570123  .00002007  00000-0  14419-3 0  9996,2 52695  53.2196 297.5336 0002297  41.0453 319.0712 15.08842981 24507,6917.871,95.437,541.325,538.1469999999998,0.0
52695.0,STARLINK-4041,PAYLOAD,2022-10-21 07:57:52,15.08846674,0.0002179,53.2197,294.8578,44.1587,315.9579,5.5975e-05,6.03e-06,0.0,0 STARLINK-4041,1 52695U 22053AR  22294.33185930  .00000603  00000-0  55975-4 0  9994,2 52695  53.2197 294.8578 0002179  44.1587 315.9579 15.08846674 24595,6917.86,95.437,541.232,538.2180000000002,0.0
52695.0,STARLINK-4041,PAYLOAD,2022-10-21 17:30:10,15.08852667,0.0002038,53.2194,293.0733,46.5767,313.5394,0.00010606,1.401e-05,0.0,0 STARLINK-4041,1 52695U 22053AR  22294.72929141  .00001401  00000-0  10606-3 0  9995,2 52695  53.2194 293.0733 0002038  46.5767 313.5394 15.08852667 24651,6917.842,95.437,541.117,538.297,0.0
